{"type":"FeatureCollection","features":[{"type":"Feature","properties":{"siren":"200065563","nom":"CC Normandie-Cabourg-Pays d'Auge"},"geometry":{"type":"Polygon","coordinates":[[[-0.141378,49.181966],[-0.141131,49.181949],[-0.140922,49.181891],[-0.140513,49.181843],[-0.139478,49.181851],[-0.139209,49.181885],[-0.138959,49.181935],[-0.138533,49.181904],[-0.137816,49.181738],[-0.137186,49.181664],[-0.136834,49.181607],[-0.136469,49.181496],[-0.136114,49.181434],[-0.135705,49.181466],[-0.134929,49.181597],[-0.134272,49.181641],[-0.133636,49.181766],[-0.13298,49.181978],[-0.132036,49.182033],[-0.131504,49.1821],[-0.131279,49.18209],[-0.130689,49.18201],[-0.128845,49.18205],[-0.128286,49.181985],[-0.127876,49.181959],[-0.127623,49.181904],[-0.126972,49.18158],[-0.125797,49.18102],[-0.125207,49.180659],[-0.124872,49.180554],[-0.124206,49.18031],[-0.123764,49.180095],[-0.123349,49.179931],[-0.122764,49.179743],[-0.122354,49.179635],[-0.122064,49.179477],[-0.12177,49.179355],[-0.121436,49.179279],[-0.120892,49.179264],[-0.120292,49.179333],[-0.11962,49.179366],[-0.118722,49.17945],[-0.118337,49.179475],[-0.117132,49.179521],[-0.116619,49.179455],[-0.115967,49.179298],[-0.115825,49.179248],[-0.115621,49.179112],[-0.115163,49.178868],[-0.114705,49.178669],[-0.113359,49.178046],[-0.112635,49.177759],[-0.112502,49.177657],[-0.112313,49.177428],[-0.112136,49.177287],[-0.111531,49.177013],[-0.110788,49.176642],[-0.110268,49.176467],[-0.109654,49.176291],[-0.109492,49.176178],[-0.109309,49.175946],[-0.109117,49.175552],[-0.10889,49.17514],[-0.108674,49.174926],[-0.108398,49.17471],[-0.108093,49.174409],[-0.107742,49.174114],[-0.107676,49.173936],[-0.107626,49.173524],[-0.107609,49.173111],[-0.107653,49.172847],[-0.107566,49.172618],[-0.107363,49.17244],[-0.106847,49.172126],[-0.106432,49.17181],[-0.106259,49.171726],[-0.105747,49.171637],[-0.105511,49.171559],[-0.10533,49.171433],[-0.105126,49.171222],[-0.104961,49.170977],[-0.104809,49.170617],[-0.104476,49.169984],[-0.104296,49.169465],[-0.104097,49.16908],[-0.103895,49.168778],[-0.103562,49.168098],[-0.102938,49.167436],[-0.102818,49.167285],[-0.102273,49.166852],[-0.101909,49.166615],[-0.100204,49.165705],[-0.099788,49.165406],[-0.098551,49.164547],[-0.098226,49.16434],[-0.097743,49.163746],[-0.097563,49.163651],[-0.097046,49.163633],[-0.096444,49.163632],[-0.096007,49.163698],[-0.095192,49.163872],[-0.094516,49.16395],[-0.093992,49.16403],[-0.093556,49.164127],[-0.093281,49.164164],[-0.092213,49.164243],[-0.091686,49.164261],[-0.091287,49.164319],[-0.090652,49.164458],[-0.089833,49.164526],[-0.089373,49.164511],[-0.088427,49.164556],[-0.087239,49.164562],[-0.086576,49.164554],[-0.084546,49.164494],[-0.084297,49.164505],[-0.084021,49.164554],[-0.083683,49.164674],[-0.083341,49.164713],[-0.082734,49.164632],[-0.081703,49.164528],[-0.080946,49.164525],[-0.080753,49.164504],[-0.080027,49.164338],[-0.078408,49.163931],[-0.077772,49.163813],[-0.077329,49.163803],[-0.077118,49.163777],[-0.076398,49.16356],[-0.075788,49.163396],[-0.075197,49.163265],[-0.074794,49.163047],[-0.074396,49.162741],[-0.073689,49.162392],[-0.073354,49.162198],[-0.073104,49.161958],[-0.072785,49.161506],[-0.07268,49.161308],[-0.072411,49.160949],[-0.07223,49.160758],[-0.072045,49.16048],[-0.071862,49.160264],[-0.071732,49.16016],[-0.070803,49.159734],[-0.070066,49.159341],[-0.069413,49.158921],[-0.068917,49.158561],[-0.068007,49.157983],[-0.067533,49.157667],[-0.067308,49.157389],[-0.067057,49.156967],[-0.066639,49.156442],[-0.066231,49.15571],[-0.065961,49.155421],[-0.065336,49.154475],[-0.065181,49.154266],[-0.064727,49.153734],[-0.064674,49.153581],[-0.064621,49.153053],[-0.064563,49.152775],[-0.064404,49.152545],[-0.064168,49.15234],[-0.063752,49.152099],[-0.063687,49.152],[-0.06364,49.15174],[-0.063634,49.151383],[-0.063594,49.151196],[-0.063158,49.15119],[-0.062475,49.151353],[-0.061931,49.151435],[-0.061665,49.151605],[-0.06147,49.151848],[-0.061329,49.151942],[-0.061069,49.152005],[-0.060769,49.152011],[-0.060363,49.151974],[-0.059733,49.151887],[-0.059307,49.151964],[-0.058955,49.151902],[-0.058689,49.151886],[-0.058365,49.151812],[-0.058178,49.151718],[-0.057817,49.151715],[-0.05767,49.151686],[-0.057457,49.151577],[-0.056844,49.151655],[-0.056382,49.151644],[-0.055985,49.151531],[-0.055314,49.15158],[-0.055002,49.151444],[-0.054818,49.151394],[-0.054478,49.151351],[-0.053895,49.151174],[-0.053519,49.15109],[-0.052972,49.151039],[-0.052583,49.150973],[-0.05183,49.150764],[-0.051116,49.150616],[-0.050188,49.150367],[-0.049526,49.150233],[-0.04925,49.15011],[-0.048991,49.150046],[-0.048349,49.149972],[-0.046807,49.14978],[-0.046573,49.149725],[-0.046294,49.149814],[-0.045809,49.150471],[-0.044976,49.151421],[-0.044849,49.151595],[-0.045179,49.151771],[-0.045262,49.151849],[-0.045252,49.151958],[-0.045092,49.152063],[-0.04464,49.152301],[-0.044235,49.152445],[-0.043677,49.15256],[-0.043384,49.152661],[-0.043177,49.152848],[-0.042781,49.153066],[-0.042604,49.153191],[-0.042382,49.153484],[-0.042237,49.153632],[-0.041949,49.153716],[-0.041178,49.153724],[-0.040721,49.153757],[-0.04002,49.153758],[-0.039071,49.153784],[-0.03873,49.153808],[-0.037473,49.15385],[-0.036013,49.153858],[-0.035132,49.153793],[-0.03496,49.153761],[-0.034607,49.153752],[-0.033535,49.153829],[-0.032187,49.153948],[-0.031367,49.153962],[-0.030074,49.153943],[-0.029164,49.153893],[-0.028747,49.153844],[-0.02779,49.153691],[-0.026675,49.153454],[-0.025951,49.153246],[-0.025358,49.153105],[-0.024724,49.152874],[-0.023685,49.152591],[-0.023364,49.152571],[-0.022589,49.152469],[-0.020664,49.152245],[-0.020506,49.152221],[-0.020122,49.152436],[-0.019642,49.152463],[-0.019284,49.152533],[-0.018883,49.152553],[-0.018271,49.152678],[-0.018045,49.152688],[-0.017557,49.152661],[-0.017155,49.152661],[-0.01643,49.152632],[-0.01562,49.15255],[-0.014963,49.152438],[-0.014645,49.152371],[-0.013486,49.152256],[-0.013135,49.152207],[-0.01286,49.152106],[-0.012576,49.152244],[-0.011662,49.152015],[-0.011686,49.151934],[-0.010686,49.151845],[-0.010253,49.151816],[-0.009578,49.151805],[-0.009135,49.151842],[-0.008902,49.151841],[-0.008529,49.1518],[-0.008322,49.151833],[-0.007858,49.152032],[-0.007066,49.152135],[-0.006651,49.152223],[-0.006342,49.152234],[-0.006281,49.152201],[-0.005648,49.152219],[-0.005037,49.152322],[-0.004361,49.15228],[-0.003972,49.152314],[-0.003822,49.152357],[-0.003395,49.15271],[-0.002971,49.153014],[-0.002555,49.153262],[-0.002254,49.153697],[-0.002005,49.153869],[-0.001582,49.154072],[-0.001515,49.154205],[-0.001506,49.154397],[-0.001046,49.154399],[-0.000792,49.154461],[-0.000451,49.154607],[-8.4e-05,49.154618],[0.00155,49.154572],[0.002595,49.154188],[0.002873,49.154104],[0.003215,49.154155],[0.00422,49.154624],[0.005378,49.154791],[0.006385,49.155259],[0.006589,49.155264],[0.00654,49.156386],[0.006714,49.157064],[0.007238,49.157614],[0.00751,49.157663],[0.007874,49.157176],[0.008295,49.15696],[0.009321,49.15698],[0.010747,49.157277],[0.011961,49.157705],[0.013526,49.158712],[0.013541,49.159161],[0.013748,49.159791],[0.013756,49.1601],[0.013638,49.160807],[0.013603,49.161334],[0.013724,49.161757],[0.01371,49.161834],[0.013516,49.162104],[0.013373,49.162576],[0.013355,49.162744],[0.013123,49.163082],[0.012868,49.163317],[0.012687,49.163771],[0.012559,49.163992],[0.012916,49.16389],[0.013128,49.163759],[0.01375,49.163637],[0.0145,49.163741],[0.015516,49.163986],[0.015892,49.163986],[0.016115,49.164131],[0.016705,49.164083],[0.017551,49.164331],[0.01782,49.164498],[0.018047,49.1648],[0.019403,49.165957],[0.020685,49.167915],[0.02088,49.169402],[0.021258,49.170128],[0.022045,49.170917],[0.022574,49.171331],[0.023652,49.171756],[0.024359,49.171956],[0.025178,49.172683],[0.025669,49.173155],[0.026212,49.173641],[0.026734,49.174047],[0.027212,49.17434],[0.027794,49.174541],[0.028611,49.174757],[0.028927,49.174884],[0.029496,49.175172],[0.029838,49.175434],[0.030321,49.175862],[0.030134,49.177014],[0.030312,49.177646],[0.031166,49.178472],[0.031026,49.178514],[0.02894,49.180407],[0.027774,49.181766],[0.027883,49.181844],[0.028302,49.181823],[0.028515,49.181841],[0.028745,49.181993],[0.028769,49.182141],[0.028713,49.182203],[0.028353,49.182383],[0.028053,49.182467],[0.027998,49.182539],[0.028147,49.182669],[0.028389,49.18272],[0.028497,49.182932],[0.028625,49.182984],[0.029026,49.183018],[0.029378,49.183209],[0.029456,49.183331],[0.029481,49.183631],[0.029742,49.183862],[0.030146,49.184289],[0.030542,49.184489],[0.030902,49.184631],[0.030999,49.184806],[0.031146,49.184808],[0.031372,49.184685],[0.03164,49.184699],[0.032226,49.184584],[0.032443,49.184487],[0.032677,49.184477],[0.033158,49.184712],[0.033349,49.184775],[0.033709,49.184762],[0.033837,49.184715],[0.033857,49.184486],[0.034171,49.184369],[0.034711,49.184365],[0.035303,49.184524],[0.035496,49.184595],[0.035942,49.184816],[0.036143,49.184822],[0.036892,49.184972],[0.037315,49.184956],[0.037535,49.185017],[0.037924,49.185036],[0.038088,49.185068],[0.038307,49.185199],[0.038849,49.185373],[0.039503,49.185429],[0.040018,49.185394],[0.040187,49.185323],[0.040986,49.184901],[0.041384,49.184649],[0.041546,49.184603],[0.042074,49.184576],[0.04263,49.184706],[0.042768,49.18471],[0.043041,49.184607],[0.043942,49.185034],[0.043754,49.185319],[0.043644,49.185692],[0.043581,49.185999],[0.0436,49.186294],[0.043964,49.186665],[0.04409,49.186991],[0.044269,49.187281],[0.044621,49.187587],[0.045224,49.188224],[0.043003,49.189458],[0.041546,49.189835],[0.040637,49.190223],[0.038971,49.190684],[0.036708,49.191589],[0.036924,49.191759],[0.037992,49.192551],[0.038158,49.192661],[0.038475,49.192924],[0.038927,49.193264],[0.039329,49.193591],[0.039829,49.19407],[0.04014,49.194449],[0.040349,49.194661],[0.041015,49.195106],[0.041542,49.195402],[0.042297,49.195857],[0.041375,49.196447],[0.041016,49.1968],[0.041197,49.197343],[0.040435,49.197508],[0.038945,49.198648],[0.037935,49.199438],[0.037496,49.200059],[0.036644,49.200716],[0.035948,49.200927],[0.032382,49.202477],[0.03162,49.202642],[0.030975,49.202944],[0.030762,49.20312],[0.030552,49.203206],[0.028435,49.204514],[0.028028,49.204718],[0.028258,49.204941],[0.028588,49.205315],[0.028819,49.20548],[0.028942,49.205501],[0.029008,49.205698],[0.029164,49.20582],[0.029742,49.205888],[0.030118,49.206072],[0.030206,49.206277],[0.030395,49.206365],[0.030619,49.206391],[0.031141,49.206702],[0.031263,49.206824],[0.031434,49.206862],[0.031706,49.20679],[0.031906,49.206836],[0.032072,49.206959],[0.032423,49.207015],[0.032475,49.207327],[0.032665,49.207428],[0.033197,49.207537],[0.033502,49.207626],[0.033806,49.207541],[0.033895,49.207704],[0.034231,49.207865],[0.03465,49.20786],[0.034775,49.207939],[0.035032,49.20793],[0.03519,49.208003],[0.035269,49.208145],[0.035754,49.208316],[0.036176,49.208506],[0.03654,49.208718],[0.036887,49.208886],[0.037407,49.208986],[0.037615,49.209118],[0.037931,49.209215],[0.038355,49.209534],[0.038763,49.20982],[0.039425,49.210127],[0.040017,49.210389],[0.040592,49.210699],[0.041033,49.210768],[0.041369,49.210787],[0.041775,49.210908],[0.042285,49.211017],[0.042844,49.211059],[0.043234,49.211105],[0.043537,49.211167],[0.044138,49.211341],[0.043287,49.211378],[0.043685,49.2117],[0.044698,49.212079],[0.045168,49.212312],[0.045505,49.212409],[0.046648,49.213006],[0.047051,49.213118],[0.047346,49.213432],[0.047823,49.213883],[0.048103,49.214116],[0.048376,49.214301],[0.049176,49.214741],[0.049413,49.214899],[0.050158,49.215478],[0.05079,49.2158],[0.051407,49.216155],[0.051955,49.216435],[0.052271,49.216751],[0.052566,49.217111],[0.05285,49.217256],[0.053007,49.217457],[0.053234,49.217628],[0.053746,49.217908],[0.054155,49.218151],[0.05433,49.218352],[0.054453,49.218659],[0.054529,49.218967],[0.05466,49.219382],[0.054887,49.219773],[0.055139,49.22004],[0.055443,49.220299],[0.055742,49.2205],[0.056039,49.220646],[0.0563,49.220734],[0.057321,49.221035],[0.058358,49.22131],[0.059877,49.22173],[0.060447,49.22191],[0.06081,49.222075],[0.061333,49.222337],[0.061881,49.222757],[0.062739,49.223369],[0.063096,49.22355],[0.063679,49.223721],[0.063846,49.223945],[0.064079,49.224165],[0.064194,49.224349],[0.064757,49.225767],[0.064923,49.22621],[0.065144,49.226597],[0.065963,49.22762],[0.066131,49.227926],[0.066352,49.228726],[0.066373,49.228952],[0.066315,49.229205],[0.066049,49.229341],[0.065941,49.229302],[0.065427,49.228903],[0.064995,49.228825],[0.064744,49.228831],[0.063998,49.228638],[0.063797,49.228624],[0.062677,49.228132],[0.062222,49.227996],[0.062037,49.228062],[0.06134,49.227841],[0.060562,49.22768],[0.06043,49.227568],[0.060009,49.227645],[0.058852,49.22778],[0.058695,49.227683],[0.058368,49.227711],[0.057849,49.227815],[0.05728,49.227999],[0.057109,49.228147],[0.056746,49.228213],[0.056188,49.228368],[0.055382,49.228558],[0.055306,49.228595],[0.05462,49.229201],[0.054283,49.229432],[0.053806,49.229652],[0.053297,49.23028],[0.052956,49.230536],[0.052432,49.230573],[0.051134,49.230735],[0.05105,49.230203],[0.052077,49.230121],[0.052019,49.229881],[0.052093,49.229834],[0.052043,49.229711],[0.050039,49.229871],[0.049931,49.229679],[0.050105,49.229337],[0.049406,49.22917],[0.049606,49.228771],[0.049843,49.228476],[0.049147,49.227976],[0.047899,49.227393],[0.046256,49.226402],[0.043808,49.228147],[0.043478,49.227959],[0.043676,49.227585],[0.043337,49.227306],[0.043173,49.227475],[0.042644,49.22794],[0.042484,49.228038],[0.042156,49.228179],[0.040739,49.228886],[0.040277,49.229169],[0.039887,49.229357],[0.039683,49.22931],[0.038955,49.229625],[0.038398,49.229933],[0.037897,49.23061],[0.037721,49.230815],[0.037474,49.230992],[0.037095,49.231226],[0.036631,49.231473],[0.036258,49.231771],[0.035894,49.232096],[0.035326,49.232706],[0.03507,49.232942],[0.034646,49.233221],[0.03396,49.233587],[0.03378,49.233649],[0.033184,49.234126],[0.033097,49.234228],[0.033085,49.234833],[0.033144,49.235064],[0.033509,49.235769],[0.032023,49.236518],[0.030902,49.237185],[0.03061,49.237381],[0.03059,49.237456],[0.030119,49.237865],[0.029048,49.238716],[0.028774,49.238816],[0.028778,49.239208],[0.028562,49.239659],[0.028284,49.239882],[0.028209,49.240045],[0.028071,49.240033],[0.027933,49.240198],[0.027631,49.240437],[0.027356,49.240613],[0.027024,49.240775],[0.026849,49.240894],[0.026359,49.241294],[0.02597,49.24165],[0.025807,49.241837],[0.025381,49.242075],[0.024795,49.242293],[0.023698,49.242757],[0.023431,49.242891],[0.022829,49.243136],[0.022502,49.243367],[0.022276,49.243483],[0.02215,49.243593],[0.021821,49.24377],[0.021309,49.243844],[0.02122,49.243887],[0.021049,49.244073],[0.020687,49.244146],[0.020225,49.244283],[0.020124,49.244339],[0.020313,49.244543],[0.020298,49.244726],[0.020341,49.244835],[0.020345,49.245076],[0.020237,49.245205],[0.020217,49.245319],[0.020018,49.245553],[0.019725,49.245607],[0.019534,49.245696],[0.019546,49.245957],[0.019323,49.246073],[0.01912,49.246281],[0.018997,49.246346],[0.018762,49.246368],[0.018575,49.246439],[0.018343,49.246724],[0.018157,49.246805],[0.018113,49.24697],[0.017977,49.247111],[0.017975,49.247237],[0.017804,49.247351],[0.017667,49.247499],[0.017422,49.247607],[0.017486,49.247722],[0.017351,49.247767],[0.017266,49.247995],[0.017098,49.248038],[0.016828,49.248217],[0.016962,49.248342],[0.016965,49.248494],[0.01684,49.248616],[0.016558,49.248578],[0.016479,49.248608],[0.016124,49.248949],[0.015992,49.249416],[0.015955,49.249696],[0.015483,49.249769],[0.015348,49.249819],[0.015298,49.249911],[0.015315,49.250061],[0.015578,49.250252],[0.015364,49.250335],[0.015273,49.250465],[0.014984,49.250578],[0.014721,49.250521],[0.01457,49.250639],[0.01441,49.250609],[0.014181,49.250763],[0.013941,49.25071],[0.013747,49.250707],[0.013543,49.250855],[0.013324,49.250945],[0.013189,49.250941],[0.012893,49.250806],[0.012456,49.25096],[0.012387,49.250769],[0.012317,49.250702],[0.01207,49.250674],[0.011751,49.250837],[0.01083,49.250894],[0.010531,49.250947],[0.010017,49.25107],[0.009886,49.251176],[0.009661,49.251241],[0.009363,49.251248],[0.00843,49.250913],[0.007994,49.251098],[0.007223,49.251166],[0.007206,49.251336],[0.006973,49.251337],[0.006862,49.251418],[0.006259,49.251483],[0.005945,49.251569],[0.005871,49.251398],[0.006106,49.251081],[0.006167,49.250872],[0.006156,49.250729],[0.00605,49.250609],[0.005781,49.250529],[0.005592,49.250512],[0.00535,49.250425],[0.004991,49.250243],[0.004876,49.250115],[0.004676,49.250075],[0.004366,49.250079],[0.004064,49.249992],[0.003807,49.249862],[0.003595,49.249868],[0.003406,49.249988],[0.003169,49.250009],[0.00284,49.249985],[0.002169,49.249855],[0.001787,49.250214],[0.001577,49.250209],[0.001297,49.250062],[0.001163,49.250138],[0.000847,49.250104],[0.000766,49.250059],[0.000696,49.249854],[0.000436,49.249757],[0.000431,49.250135],[0.000266,49.250913],[-0.000201,49.25083],[-0.000786,49.250827],[-0.000687,49.251087],[-0.000518,49.251155],[-0.000521,49.251454],[0.000435,49.251788],[0.001218,49.252487],[0.002064,49.252867],[0.002892,49.253289],[0.00344,49.253603],[0.003091,49.254362],[0.003241,49.254711],[0.003852,49.255389],[0.004781,49.2565],[0.005869,49.256965],[0.005943,49.257773],[0.007,49.258984],[0.006838,49.259089],[0.006258,49.259583],[0.005788,49.259821],[0.005569,49.26004],[0.005043,49.260349],[0.00491,49.260513],[0.004878,49.260686],[0.004688,49.260787],[0.004564,49.261121],[0.004315,49.261255],[0.004264,49.261525],[0.003995,49.261853],[0.003801,49.261972],[0.003633,49.262136],[0.003473,49.262421],[0.003199,49.262822],[0.003156,49.262925],[0.003182,49.263142],[0.003351,49.263489],[0.003561,49.263691],[0.003722,49.26395],[0.003909,49.264394],[0.004033,49.264607],[0.00432,49.264729],[0.004476,49.264863],[0.004507,49.264953],[0.004719,49.265134],[0.004619,49.265551],[0.004611,49.265805],[0.004524,49.266113],[0.004421,49.266269],[0.003893,49.266705],[0.00369,49.266962],[0.003607,49.267279],[0.003598,49.267535],[0.00364,49.267803],[0.003806,49.26817],[0.003874,49.26847],[0.004107,49.26876],[0.004192,49.268992],[0.004167,49.269315],[0.005284,49.26999],[0.005846,49.270344],[0.006317,49.271158],[0.006403,49.272148],[0.006644,49.274114],[0.007485,49.276534],[0.007719,49.277062],[0.007978,49.277442],[0.007044,49.277951],[0.006732,49.278138],[0.006455,49.278359],[0.006152,49.278661],[0.005715,49.279007],[0.00533,49.27924],[0.004586,49.279631],[0.005088,49.280193],[0.006318,49.281209],[0.007507,49.282144],[0.008089,49.282007],[0.008588,49.282345],[0.009231,49.282658],[0.010371,49.283029],[0.011374,49.283604],[0.011778,49.283876],[0.011889,49.283848],[0.014197,49.283162],[0.014408,49.283121],[0.014836,49.283831],[0.014912,49.283984],[0.01535,49.284236],[0.015054,49.284339],[0.015712,49.285167],[0.016821,49.286634],[0.01739,49.287369],[0.017663,49.28755],[0.018971,49.288283],[0.018938,49.288951],[0.018958,49.289272],[0.018788,49.28954],[0.018872,49.28961],[0.020272,49.291074],[0.020405,49.291146],[0.020105,49.291304],[0.019148,49.291621],[0.018535,49.291908],[0.018041,49.291949],[0.017491,49.291876],[0.017321,49.29214],[0.016633,49.291851],[0.01585,49.291393],[0.015456,49.291209],[0.01518,49.29094],[0.015076,49.290762],[0.014908,49.290592],[0.014247,49.290361],[0.01359,49.290155],[0.01329,49.290333],[0.012723,49.290786],[0.013064,49.29115],[0.012308,49.291675],[0.011995,49.291926],[0.011641,49.292297],[0.011486,49.292263],[0.01139,49.292329],[0.011205,49.292329],[0.011127,49.292464],[0.010942,49.292439],[0.010708,49.292954],[0.010696,49.293076],[0.009982,49.293158],[0.009403,49.293507],[0.00821,49.294067],[0.007307,49.294274],[0.006329,49.294678],[0.006071,49.2948],[0.005789,49.295265],[0.005759,49.295611],[0.005991,49.296044],[0.006006,49.296144],[0.006129,49.296367],[0.005801,49.297022],[0.005657,49.297245],[0.005356,49.297514],[0.005155,49.297646],[0.004953,49.297835],[0.004612,49.297948],[0.004251,49.298178],[0.004204,49.298372],[0.004047,49.298368],[0.003791,49.298763],[0.003085,49.299267],[0.002708,49.299564],[0.002475,49.299786],[0.001543,49.300848],[0.000952,49.301365],[0.000398,49.301775],[0.000483,49.301903],[0.000204,49.302063],[8.6e-05,49.302272],[-0.000241,49.302187],[-0.000441,49.30182],[-0.000521,49.301572],[-0.000669,49.301525],[-0.001127,49.301485],[-0.001304,49.301302],[-0.001739,49.301497],[-0.002644,49.301461],[-0.003446,49.301478],[-0.004619,49.301446],[-0.005038,49.301423],[-0.005545,49.301362],[-0.005996,49.301256],[-0.006288,49.301167],[-0.006705,49.301005],[-0.007221,49.300842],[-0.008145,49.300501],[-0.008555,49.30037],[-0.008906,49.300216],[-0.009698,49.300742],[-0.009904,49.300817],[-0.010944,49.300995],[-0.011519,49.301061],[-0.011635,49.301165],[-0.012683,49.301395],[-0.013571,49.301625],[-0.013337,49.302208],[-0.013303,49.30263],[-0.013255,49.302782],[-0.013091,49.302971],[-0.013179,49.303061],[-0.012707,49.303556],[-0.012493,49.303992],[-0.012446,49.304159],[-0.012483,49.304411],[-0.012042,49.304705],[-0.012061,49.304822],[-0.011924,49.304898],[-0.011657,49.305323],[-0.011637,49.305469],[-0.01171,49.305998],[-0.011435,49.306389],[-0.011525,49.306601],[-0.011434,49.306734],[-0.011427,49.306987],[-0.011214,49.30727],[-0.010973,49.307698],[-0.010731,49.308286],[-0.01053,49.308707],[-0.010413,49.309225],[-0.010368,49.309632],[-0.010388,49.309818],[-0.010289,49.31003],[-0.010688,49.309892],[-0.011174,49.309685],[-0.012296,49.309297],[-0.013001,49.309066],[-0.014011,49.308883],[-0.014701,49.308257],[-0.014979,49.307925],[-0.015175,49.307609],[-0.015639,49.307023],[-0.016333,49.307225],[-0.016427,49.307114],[-0.01662,49.307009],[-0.016751,49.306751],[-0.016897,49.306573],[-0.017229,49.306339],[-0.017225,49.306026],[-0.018858,49.305542],[-0.020487,49.305207],[-0.020468,49.305643],[-0.020247,49.306252],[-0.019962,49.307299],[-0.019869,49.307861],[-0.019793,49.308666],[-0.019661,49.30869],[-0.019657,49.309035],[-0.019594,49.309824],[-0.019406,49.310577],[-0.019294,49.310779],[-0.019155,49.310915],[-0.018931,49.311028],[-0.017764,49.311505],[-0.017095,49.311923],[-0.016461,49.312452],[-0.016035,49.312912],[-0.015721,49.313288],[-0.015629,49.313473],[-0.015542,49.313756],[-0.015503,49.314022],[-0.015509,49.314272],[-0.015457,49.314432],[-0.015049,49.314949],[-0.014782,49.315241],[-0.014479,49.315614],[-0.014186,49.316076],[-0.013697,49.317214],[-0.013544,49.317514],[-0.013604,49.318725],[-0.0135,49.318815],[-0.013378,49.319098],[-0.013442,49.319394],[-0.013439,49.3196],[-0.013841,49.3214],[-0.014238,49.321245],[-0.015603,49.320824],[-0.015889,49.320763],[-0.016768,49.320498],[-0.017074,49.320486],[-0.017166,49.320399],[-0.017382,49.320296],[-0.017643,49.320284],[-0.017971,49.320161],[-0.018156,49.320049],[-0.018269,49.320044],[-0.018532,49.319893],[-0.018812,49.319873],[-0.01892,49.319772],[-0.019204,49.319666],[-0.019444,49.319678],[-0.019938,49.319482],[-0.020133,49.319362],[-0.020518,49.319256],[-0.020877,49.319188],[-0.02122,49.319078],[-0.021617,49.319034],[-0.021922,49.318888],[-0.022341,49.318831],[-0.02269,49.318838],[-0.022909,49.318756],[-0.023385,49.318817],[-0.023771,49.318789],[-0.024267,49.318632],[-0.024609,49.318669],[-0.024921,49.318542],[-0.025294,49.318517],[-0.025664,49.318548],[-0.025878,49.318527],[-0.026001,49.318444],[-0.026951,49.318313],[-0.027286,49.318162],[-0.027715,49.318059],[-0.027923,49.31797],[-0.028098,49.317953],[-0.028566,49.317837],[-0.028855,49.317741],[-0.029096,49.317628],[-0.029247,49.317604],[-0.029471,49.317638],[-0.029871,49.317512],[-0.030274,49.317424],[-0.030418,49.317325],[-0.030742,49.317258],[-0.030958,49.317186],[-0.03116,49.317063],[-0.031388,49.317055],[-0.031542,49.316939],[-0.031931,49.316809],[-0.032132,49.316785],[-0.032241,49.31671],[-0.032466,49.316661],[-0.032808,49.316656],[-0.032947,49.316542],[-0.033192,49.316517],[-0.033487,49.316322],[-0.033725,49.316313],[-0.03414,49.316102],[-0.034659,49.315942],[-0.034848,49.315847],[-0.035647,49.315568],[-0.036123,49.31545],[-0.036598,49.315398],[-0.03696,49.315443],[-0.037361,49.31541],[-0.037912,49.315476],[-0.038203,49.315435],[-0.038686,49.315312],[-0.038918,49.315271],[-0.039268,49.315064],[-0.039621,49.314886],[-0.040083,49.31469],[-0.040217,49.314698],[-0.040355,49.314572],[-0.040878,49.314379],[-0.041611,49.314072],[-0.042034,49.313914],[-0.042536,49.313748],[-0.042961,49.313586],[-0.04323,49.313552],[-0.043774,49.313335],[-0.043931,49.313327],[-0.044355,49.313144],[-0.044606,49.313141],[-0.044886,49.312962],[-0.045551,49.312705],[-0.0464,49.312403],[-0.046791,49.312226],[-0.047353,49.312056],[-0.04779,49.311882],[-0.048216,49.311748],[-0.048398,49.311715],[-0.049058,49.311469],[-0.050657,49.310929],[-0.05085,49.310902],[-0.051222,49.310767],[-0.051386,49.310672],[-0.051768,49.310594],[-0.052306,49.310392],[-0.052619,49.310331],[-0.05274,49.310258],[-0.053027,49.310223],[-0.053192,49.310114],[-0.054218,49.30978],[-0.054653,49.309665],[-0.054907,49.309563],[-0.055448,49.309431],[-0.055827,49.309306],[-0.056488,49.309141],[-0.056639,49.309118],[-0.057128,49.308969],[-0.057734,49.308813],[-0.058063,49.308793],[-0.058381,49.308685],[-0.058807,49.308604],[-0.059273,49.308458],[-0.059663,49.308389],[-0.059912,49.308301],[-0.060618,49.308172],[-0.060864,49.308087],[-0.061151,49.308059],[-0.06142,49.307959],[-0.061715,49.307949],[-0.061826,49.307906],[-0.062048,49.307916],[-0.062257,49.307822],[-0.0627,49.307756],[-0.063861,49.307471],[-0.064007,49.30745],[-0.064623,49.307294],[-0.064957,49.307249],[-0.065132,49.307196],[-0.06557,49.307133],[-0.065831,49.307072],[-0.066223,49.307057],[-0.066481,49.306992],[-0.06669,49.306979],[-0.066894,49.306923],[-0.067416,49.306833],[-0.067675,49.306851],[-0.067873,49.30696],[-0.068721,49.306768],[-0.06881,49.306788],[-0.069702,49.30659],[-0.071207,49.306212],[-0.071413,49.306139],[-0.071636,49.306139],[-0.072287,49.306071],[-0.072581,49.306003],[-0.072682,49.305931],[-0.073195,49.305769],[-0.073527,49.305758],[-0.074023,49.305677],[-0.074748,49.305441],[-0.075202,49.305349],[-0.075704,49.305214],[-0.076857,49.30485],[-0.077047,49.304748],[-0.077428,49.304654],[-0.077708,49.304625],[-0.078159,49.304466],[-0.078255,49.304322],[-0.078629,49.304174],[-0.078918,49.303998],[-0.079563,49.303733],[-0.079852,49.303669],[-0.080169,49.303685],[-0.080914,49.303372],[-0.081318,49.303179],[-0.082121,49.302853],[-0.082242,49.302691],[-0.08213,49.3026],[-0.081989,49.302596],[-0.082279,49.302352],[-0.082581,49.302155],[-0.082888,49.301912],[-0.083153,49.301741],[-0.083387,49.301515],[-0.083349,49.301406],[-0.083169,49.301375],[-0.082827,49.301468],[-0.082696,49.301457],[-0.082393,49.301325],[-0.082458,49.301251],[-0.082739,49.301352],[-0.082881,49.301272],[-0.083319,49.30127],[-0.083537,49.301335],[-0.083713,49.301259],[-0.083863,49.301129],[-0.084149,49.300962],[-0.084236,49.300945],[-0.084807,49.300538],[-0.084993,49.300371],[-0.085014,49.300238],[-0.084887,49.300097],[-0.085025,49.299758],[-0.085196,49.299475],[-0.085376,49.299262],[-0.085786,49.298911],[-0.086021,49.298653],[-0.085891,49.298624],[-0.085714,49.298674],[-0.086115,49.298082],[-0.086299,49.297877],[-0.086389,49.297824],[-0.086539,49.297539],[-0.086882,49.297155],[-0.087167,49.296743],[-0.087715,49.296048],[-0.087954,49.295804],[-0.088361,49.295493],[-0.088695,49.295301],[-0.08898,49.295165],[-0.089366,49.295019],[-0.089762,49.294916],[-0.089976,49.294933],[-0.089994,49.295004],[-0.091328,49.295006],[-0.091351,49.294933],[-0.091601,49.294859],[-0.091739,49.29474],[-0.091873,49.294556],[-0.091858,49.294435],[-0.091994,49.294413],[-0.092336,49.294611],[-0.092168,49.294795],[-0.092198,49.294831],[-0.092563,49.294722],[-0.092637,49.294819],[-0.093408,49.294593],[-0.093452,49.294637],[-0.093709,49.294567],[-0.093678,49.294514],[-0.09457,49.294248],[-0.094429,49.294023],[-0.095699,49.293643],[-0.097848,49.293019],[-0.09911,49.292656],[-0.099509,49.293224],[-0.099553,49.293391],[-0.099652,49.293443],[-0.100104,49.294097],[-0.098941,49.294438],[-0.097965,49.294713],[-0.096144,49.294352],[-0.096095,49.294209],[-0.095946,49.294249],[-0.09591,49.29434],[-0.094842,49.294646],[-0.094691,49.294434],[-0.093795,49.294691],[-0.093513,49.294734],[-0.093496,49.294875],[-0.093583,49.295052],[-0.093746,49.295116],[-0.093925,49.295124],[-0.094223,49.295058],[-0.094828,49.295153],[-0.095564,49.29531],[-0.096045,49.295373],[-0.096827,49.295527],[-0.097431,49.295627],[-0.09863,49.295849],[-0.09891,49.295824],[-0.100039,49.295386],[-0.100469,49.295263],[-0.100924,49.295098],[-0.101362,49.295039],[-0.102031,49.29512],[-0.102131,49.295045],[-0.102161,49.294862],[-0.102248,49.294694],[-0.102385,49.294572],[-0.102989,49.294266],[-0.103344,49.294032],[-0.103458,49.293893],[-0.103549,49.293627],[-0.103663,49.293001],[-0.103719,49.292244],[-0.103841,49.291775],[-0.103889,49.291411],[-0.104009,49.291018],[-0.104131,49.290703],[-0.104328,49.29032],[-0.104575,49.290048],[-0.105334,49.289402],[-0.105763,49.289013],[-0.106131,49.288717],[-0.106536,49.288352],[-0.106754,49.288102],[-0.107009,49.28793],[-0.107568,49.28768],[-0.1081,49.287468],[-0.108886,49.287193],[-0.109599,49.286922],[-0.110262,49.286566],[-0.110365,49.286486],[-0.110798,49.286235],[-0.111123,49.285969],[-0.111293,49.285757],[-0.111734,49.285865],[-0.112104,49.28597],[-0.112039,49.286156],[-0.11193,49.286307],[-0.111622,49.286643],[-0.111462,49.286775],[-0.110938,49.287134],[-0.110218,49.287515],[-0.109412,49.287888],[-0.108818,49.288138],[-0.108076,49.288471],[-0.107578,49.288735],[-0.107155,49.288994],[-0.107037,49.289112],[-0.106866,49.289437],[-0.106849,49.289534],[-0.106915,49.289804],[-0.107068,49.290292],[-0.107126,49.290574],[-0.107147,49.291178],[-0.107108,49.291425],[-0.106945,49.291855],[-0.106842,49.292063],[-0.106398,49.292628],[-0.106154,49.293056],[-0.105894,49.293389],[-0.105869,49.293482],[-0.10558,49.293801],[-0.105384,49.294157],[-0.105125,49.294458],[-0.105141,49.294588],[-0.105079,49.294698],[-0.104821,49.294742],[-0.104659,49.294951],[-0.104388,49.295183],[-0.103699,49.295706],[-0.103102,49.295984],[-0.101997,49.296449],[-0.101353,49.296786],[-0.101015,49.29694],[-0.100559,49.297108],[-0.100287,49.297189],[-0.09972,49.297325],[-0.098658,49.29755],[-0.097776,49.297679],[-0.097026,49.297746],[-0.096585,49.297768],[-0.095628,49.297751],[-0.094698,49.297796],[-0.094276,49.297781],[-0.094018,49.297813],[-0.092719,49.297897],[-0.09212,49.297954],[-0.09176,49.297949],[-0.091211,49.297915],[-0.09089,49.297865],[-0.090717,49.297798],[-0.090642,49.297886],[-0.090455,49.297885],[-0.090395,49.297747],[-0.090467,49.297398],[-0.090267,49.297035],[-0.090188,49.296635],[-0.090202,49.29636],[-0.090142,49.296125],[-0.090088,49.296065],[-0.089863,49.296028],[-0.089608,49.296057],[-0.0894,49.296154],[-0.089215,49.29634],[-0.089352,49.296365],[-0.089432,49.296257],[-0.089616,49.296246],[-0.089308,49.296484],[-0.089217,49.296521],[-0.089108,49.296707],[-0.089004,49.296803],[-0.088998,49.297124],[-0.089043,49.297268],[-0.089262,49.297463],[-0.089718,49.297687],[-0.090034,49.297898],[-0.090116,49.298099],[-0.090367,49.298252],[-0.090438,49.298519],[-0.09054,49.298475],[-0.0915,49.298514],[-0.091745,49.298561],[-0.091848,49.298627],[-0.09199,49.298543],[-0.092527,49.298549],[-0.092721,49.298598],[-0.092806,49.298689],[-0.092929,49.298581],[-0.093231,49.298544],[-0.093612,49.298549],[-0.093837,49.29868],[-0.093936,49.298636],[-0.094534,49.298487],[-0.09492,49.298336],[-0.095229,49.298306],[-0.095486,49.298355],[-0.095684,49.298274],[-0.096373,49.298142],[-0.097079,49.29808],[-0.097971,49.297966],[-0.09842,49.297892],[-0.09865,49.297823],[-0.098762,49.297856],[-0.098938,49.297806],[-0.100352,49.297527],[-0.10047,49.297668],[-0.10114,49.297538],[-0.101378,49.297577],[-0.102209,49.297397],[-0.10304,49.2972],[-0.103172,49.297094],[-0.103538,49.297104],[-0.104293,49.296956],[-0.105167,49.296768],[-0.105724,49.296676],[-0.106591,49.296496],[-0.107328,49.296314],[-0.108192,49.296061],[-0.108291,49.296084],[-0.108544,49.296007],[-0.109054,49.295895],[-0.109987,49.29567],[-0.109891,49.295598],[-0.110212,49.295523],[-0.110415,49.295519],[-0.110462,49.295578],[-0.11113,49.295436],[-0.113333,49.294903],[-0.113837,49.294793],[-0.114031,49.294727],[-0.114314,49.294684],[-0.114555,49.294747],[-0.115092,49.294675],[-0.115739,49.294491],[-0.116576,49.294279],[-0.117765,49.294056],[-0.117917,49.2941],[-0.118218,49.294049],[-0.118813,49.29392],[-0.11955,49.293731],[-0.119649,49.293618],[-0.119901,49.293648],[-0.120514,49.293532],[-0.121248,49.293365],[-0.121435,49.293361],[-0.121849,49.293284],[-0.122658,49.293085],[-0.124565,49.292584],[-0.124598,49.292665],[-0.124832,49.292553],[-0.125393,49.292443],[-0.125993,49.292306],[-0.12672,49.292163],[-0.126953,49.292082],[-0.127357,49.292074],[-0.12817,49.291868],[-0.129266,49.291626],[-0.129311,49.291688],[-0.129601,49.291606],[-0.13025,49.291474],[-0.130504,49.291379],[-0.130909,49.29127],[-0.131432,49.291253],[-0.131578,49.291295],[-0.131807,49.29126],[-0.132671,49.29108],[-0.132698,49.291009],[-0.133164,49.290935],[-0.133207,49.290983],[-0.134934,49.290659],[-0.13506,49.290659],[-0.135495,49.290568],[-0.136511,49.2904],[-0.136794,49.290362],[-0.137458,49.290174],[-0.138135,49.290021],[-0.138426,49.290002],[-0.138771,49.289905],[-0.139279,49.289828],[-0.139404,49.289833],[-0.139608,49.289762],[-0.140102,49.289694],[-0.140182,49.289747],[-0.140662,49.289706],[-0.141147,49.289629],[-0.141321,49.28962],[-0.141801,49.289522],[-0.141968,49.28953],[-0.142707,49.28941],[-0.14276,49.289367],[-0.143086,49.289352],[-0.143385,49.289309],[-0.143572,49.289225],[-0.144018,49.289214],[-0.144401,49.289156],[-0.144631,49.28909],[-0.145007,49.289033],[-0.145504,49.288992],[-0.146664,49.288845],[-0.147062,49.288779],[-0.147826,49.288629],[-0.148387,49.288543],[-0.149493,49.288437],[-0.151241,49.288202],[-0.152377,49.288065],[-0.153124,49.287986],[-0.154148,49.287859],[-0.155592,49.287748],[-0.155918,49.287699],[-0.156523,49.287636],[-0.157249,49.287586],[-0.157888,49.287513],[-0.158572,49.287467],[-0.159634,49.287361],[-0.159982,49.287347],[-0.161102,49.287211],[-0.162004,49.287135],[-0.162245,49.287126],[-0.16239,49.287198],[-0.162035,49.287267],[-0.160729,49.287384],[-0.160642,49.287421],[-0.160214,49.287495],[-0.159785,49.287533],[-0.159849,49.287622],[-0.160315,49.287547],[-0.161262,49.287482],[-0.161801,49.287414],[-0.162585,49.287338],[-0.162716,49.287298],[-0.163496,49.287206],[-0.16377,49.287194],[-0.16418,49.287125],[-0.165002,49.28701],[-0.165154,49.287008],[-0.165881,49.286935],[-0.167062,49.286803],[-0.168186,49.286684],[-0.16905,49.286559],[-0.169992,49.28645],[-0.170283,49.2864],[-0.170483,49.286396],[-0.171032,49.286314],[-0.171505,49.286316],[-0.172284,49.286262],[-0.174549,49.286214],[-0.176045,49.286231],[-0.17647,49.286212],[-0.177325,49.286218],[-0.177851,49.286245],[-0.177607,49.286326],[-0.177381,49.286303],[-0.177142,49.286322],[-0.177081,49.286409],[-0.176671,49.286471],[-0.176137,49.28645],[-0.176064,49.286508],[-0.176401,49.286554],[-0.177096,49.286525],[-0.177257,49.286545],[-0.178008,49.286519],[-0.178719,49.286482],[-0.179358,49.286468],[-0.180074,49.286422],[-0.180164,49.286449],[-0.18051,49.286394],[-0.180954,49.286389],[-0.181103,49.286359],[-0.181963,49.286288],[-0.182501,49.286277],[-0.18286,49.286225],[-0.183173,49.286219],[-0.183639,49.28617],[-0.184089,49.286204],[-0.184665,49.286191],[-0.184746,49.286164],[-0.185284,49.28618],[-0.185429,49.286157],[-0.18594,49.286167],[-0.186527,49.286138],[-0.186689,49.286112],[-0.1876,49.28611],[-0.188079,49.286065],[-0.188673,49.286044],[-0.189086,49.286052],[-0.190603,49.286137],[-0.191434,49.286171],[-0.191798,49.286136],[-0.192002,49.28621],[-0.192073,49.286283],[-0.192319,49.28635],[-0.192344,49.286406],[-0.192008,49.286435],[-0.191412,49.286404],[-0.190451,49.286237],[-0.189954,49.286205],[-0.189826,49.286252],[-0.189396,49.286253],[-0.190278,49.286375],[-0.190576,49.286428],[-0.190775,49.286497],[-0.191338,49.28657],[-0.191872,49.286604],[-0.192689,49.286621],[-0.192897,49.286652],[-0.193399,49.286646],[-0.194619,49.286696],[-0.195626,49.286713],[-0.19682,49.286673],[-0.197383,49.286684],[-0.197905,49.286673],[-0.198018,49.286653],[-0.198741,49.286667],[-0.20028,49.28678],[-0.200988,49.286804],[-0.202144,49.286907],[-0.203348,49.286999],[-0.203798,49.287016],[-0.20442,49.286999],[-0.205392,49.286955],[-0.205752,49.286929],[-0.206391,49.286924],[-0.206727,49.286951],[-0.207774,49.287106],[-0.208401,49.287136],[-0.208522,49.287078],[-0.208784,49.287141],[-0.209036,49.287138],[-0.210041,49.287049],[-0.211456,49.286993],[-0.212606,49.286989],[-0.213851,49.28696],[-0.214432,49.286965],[-0.215773,49.286953],[-0.216922,49.286958],[-0.217582,49.286873],[-0.218615,49.286624],[-0.219523,49.286418],[-0.220426,49.286199],[-0.221207,49.286052],[-0.222445,49.285916],[-0.223184,49.285819],[-0.223832,49.285713],[-0.224672,49.285609],[-0.225223,49.285583],[-0.225555,49.285593],[-0.22717,49.285861],[-0.227692,49.285892],[-0.22803,49.285934],[-0.228809,49.28607],[-0.229177,49.286059],[-0.229355,49.286012],[-0.229833,49.285751],[-0.230308,49.285521],[-0.230366,49.285454],[-0.230665,49.285334],[-0.23076,49.285333],[-0.231296,49.285127],[-0.231931,49.28491],[-0.232441,49.284713],[-0.232877,49.284568],[-0.234024,49.284091],[-0.234472,49.283917],[-0.234451,49.283798],[-0.234185,49.283459],[-0.233852,49.28313],[-0.233663,49.283028],[-0.233712,49.282925],[-0.233569,49.28271],[-0.233319,49.282503],[-0.233037,49.282784],[-0.232943,49.282927],[-0.233323,49.28313],[-0.233471,49.283262],[-0.233598,49.28351],[-0.233715,49.283578],[-0.233963,49.283507],[-0.234046,49.283628],[-0.233826,49.283874],[-0.233498,49.283991],[-0.233268,49.284171],[-0.233012,49.284285],[-0.232476,49.284357],[-0.232147,49.284445],[-0.231682,49.284598],[-0.231327,49.284822],[-0.231102,49.284889],[-0.230838,49.285062],[-0.230581,49.285181],[-0.230252,49.285213],[-0.229994,49.285346],[-0.229818,49.285398],[-0.229573,49.285401],[-0.229381,49.285265],[-0.229407,49.285119],[-0.229275,49.284752],[-0.229295,49.284528],[-0.229217,49.284302],[-0.229035,49.284056],[-0.228916,49.283841],[-0.228611,49.283199],[-0.228408,49.282734],[-0.228357,49.282411],[-0.228374,49.282057],[-0.228188,49.28137],[-0.228079,49.28122],[-0.227795,49.281079],[-0.22741,49.280923],[-0.227068,49.280838],[-0.226853,49.280879],[-0.226869,49.280963],[-0.22705,49.280966],[-0.227442,49.281054],[-0.227497,49.281168],[-0.227727,49.281321],[-0.227782,49.281485],[-0.227864,49.281539],[-0.227853,49.281702],[-0.227708,49.281772],[-0.227462,49.281761],[-0.227326,49.281838],[-0.227304,49.281924],[-0.227413,49.282063],[-0.227802,49.282172],[-0.227696,49.282353],[-0.227557,49.28242],[-0.227394,49.282388],[-0.227285,49.282466],[-0.227394,49.28267],[-0.227665,49.282934],[-0.227846,49.283184],[-0.227945,49.283388],[-0.227983,49.283689],[-0.227854,49.28387],[-0.227586,49.283911],[-0.227354,49.283891],[-0.22712,49.283953],[-0.226661,49.283963],[-0.226225,49.284014],[-0.225787,49.284154],[-0.225351,49.284176],[-0.224892,49.284358],[-0.224667,49.284416],[-0.224249,49.284475],[-0.224022,49.284556],[-0.223812,49.284506],[-0.224178,49.284304],[-0.224484,49.284206],[-0.225085,49.284074],[-0.225364,49.283946],[-0.225677,49.283649],[-0.225655,49.283533],[-0.225556,49.283496],[-0.224982,49.283751],[-0.223633,49.284188],[-0.222487,49.284443],[-0.222111,49.284466],[-0.221645,49.284329],[-0.221326,49.284289],[-0.221397,49.284069],[-0.221198,49.283988],[-0.220993,49.28401],[-0.220744,49.284084],[-0.220149,49.284208],[-0.219751,49.284273],[-0.219183,49.284468],[-0.218306,49.284701],[-0.2178,49.284761],[-0.217472,49.284899],[-0.217522,49.284686],[-0.217681,49.284591],[-0.218235,49.284364],[-0.219119,49.284081],[-0.219572,49.283786],[-0.219797,49.283705],[-0.219963,49.283694],[-0.220387,49.283745],[-0.220674,49.283831],[-0.221056,49.283819],[-0.22126,49.283766],[-0.221296,49.28368],[-0.221237,49.283447],[-0.221413,49.28341],[-0.22145,49.283566],[-0.221585,49.283602],[-0.221741,49.28334],[-0.221645,49.283168],[-0.221649,49.283083],[-0.221775,49.282955],[-0.22197,49.282872],[-0.222263,49.282838],[-0.222487,49.282954],[-0.222665,49.283256],[-0.222657,49.283337],[-0.222504,49.283442],[-0.222104,49.283625],[-0.221803,49.283723],[-0.221714,49.283816],[-0.2218,49.284021],[-0.222057,49.284179],[-0.222228,49.284197],[-0.222447,49.284141],[-0.223414,49.28375],[-0.223753,49.283648],[-0.224796,49.283451],[-0.225003,49.283388],[-0.225533,49.283086],[-0.225798,49.282905],[-0.226018,49.282722],[-0.226174,49.28247],[-0.225996,49.282155],[-0.22595,49.281924],[-0.225689,49.281544],[-0.225711,49.281376],[-0.225583,49.281158],[-0.225269,49.28097],[-0.225101,49.280764],[-0.22524,49.280569],[-0.225204,49.280364],[-0.224763,49.279986],[-0.224673,49.279877],[-0.224268,49.279519],[-0.223874,49.279214],[-0.223642,49.279146],[-0.223662,49.279048],[-0.22344,49.278869],[-0.22319,49.278756],[-0.223037,49.278725],[-0.22268,49.278713],[-0.222473,49.278671],[-0.222175,49.278482],[-0.222042,49.27829],[-0.221959,49.277981],[-0.221935,49.277727],[-0.221989,49.277089],[-0.221916,49.276926],[-0.221927,49.276779],[-0.221841,49.276695],[-0.221899,49.276506],[-0.222106,49.27604],[-0.222537,49.275452],[-0.222896,49.275051],[-0.223259,49.274461],[-0.223396,49.274092],[-0.22352,49.273268],[-0.22358,49.273185],[-0.22359,49.272528],[-0.223416,49.27217],[-0.223109,49.27179],[-0.223001,49.271738],[-0.222434,49.271632],[-0.222161,49.27156],[-0.221635,49.27152],[-0.221296,49.271552],[-0.220816,49.271657],[-0.220125,49.272007],[-0.219638,49.272331],[-0.219392,49.272342],[-0.218918,49.272099],[-0.219018,49.271935],[-0.219245,49.271767],[-0.219364,49.271577],[-0.219082,49.271265],[-0.219064,49.271094],[-0.219124,49.271013],[-0.21942,49.270783],[-0.219903,49.270455],[-0.220275,49.270139],[-0.220792,49.269779],[-0.221171,49.2696],[-0.221636,49.269185],[-0.221858,49.26895],[-0.222266,49.268614],[-0.223079,49.268268],[-0.223412,49.268201],[-0.223838,49.268159],[-0.22479,49.268014],[-0.225455,49.267853],[-0.225921,49.267726],[-0.226835,49.267559],[-0.227347,49.267453],[-0.22759,49.267383],[-0.228276,49.267119],[-0.228785,49.266883],[-0.229035,49.266737],[-0.22927,49.266461],[-0.229705,49.2661],[-0.22989,49.266025],[-0.230075,49.266011],[-0.230313,49.266039],[-0.230452,49.265889],[-0.230525,49.265706],[-0.230894,49.265348],[-0.230983,49.265203],[-0.230953,49.265058],[-0.231041,49.2649],[-0.231271,49.264779],[-0.231319,49.264689],[-0.231781,49.264649],[-0.23192,49.264701],[-0.232408,49.264678],[-0.232494,49.264626],[-0.232826,49.264581],[-0.233299,49.264548],[-0.233771,49.264596],[-0.234152,49.264616],[-0.234565,49.264671],[-0.23478,49.264661],[-0.235308,49.264747],[-0.235809,49.26478],[-0.235923,49.264761],[-0.236065,49.264847],[-0.236309,49.264908],[-0.236536,49.264836],[-0.236671,49.264838],[-0.237186,49.26493],[-0.237829,49.264959],[-0.238011,49.264997],[-0.238806,49.265066],[-0.238838,49.265154],[-0.239081,49.265091],[-0.240253,49.265204],[-0.240603,49.265258],[-0.24136,49.265314],[-0.241905,49.265429],[-0.241976,49.265388],[-0.242399,49.265403],[-0.244059,49.266007],[-0.244177,49.265958],[-0.244862,49.265153],[-0.245057,49.264968],[-0.245119,49.264858],[-0.246682,49.263018],[-0.247441,49.262128],[-0.24774,49.261795],[-0.248377,49.261032],[-0.248591,49.260807],[-0.249245,49.260013],[-0.251874,49.260984],[-0.252235,49.261109],[-0.253437,49.260614],[-0.253774,49.259628],[-0.253947,49.25922],[-0.254399,49.257775],[-0.254695,49.256772],[-0.254838,49.256223],[-0.254933,49.255714],[-0.255297,49.255789],[-0.255444,49.255791],[-0.256826,49.255714],[-0.256946,49.255692],[-0.259872,49.255835],[-0.261914,49.256034],[-0.262315,49.25581],[-0.262739,49.255512],[-0.2633,49.255213],[-0.263756,49.254987],[-0.264018,49.25473],[-0.264471,49.25445],[-0.265,49.254043],[-0.265866,49.253251],[-0.266105,49.253084],[-0.267197,49.2518],[-0.269424,49.248951],[-0.269487,49.248865],[-0.270187,49.248034],[-0.270313,49.24778],[-0.270826,49.247067],[-0.271232,49.246429],[-0.271521,49.246153],[-0.27202,49.245208],[-0.272291,49.244311],[-0.272491,49.243745],[-0.272825,49.242563],[-0.272794,49.242077],[-0.272962,49.241494],[-0.272982,49.240146],[-0.272928,49.238975],[-0.272742,49.236984],[-0.272725,49.234698],[-0.272819,49.233854],[-0.272907,49.233322],[-0.273018,49.233096],[-0.273965,49.232066],[-0.275077,49.231112],[-0.27634,49.229802],[-0.277669,49.228677],[-0.278478,49.227898],[-0.278842,49.227296],[-0.279009,49.226957],[-0.279785,49.225032],[-0.280267,49.224023],[-0.280619,49.223665],[-0.281536,49.223104],[-0.285304,49.221158],[-0.286504,49.22051],[-0.28722,49.220007],[-0.287971,49.219452],[-0.288536,49.219088],[-0.289608,49.218519],[-0.290147,49.218286],[-0.290664,49.218017],[-0.291452,49.217589],[-0.292227,49.217121],[-0.292682,49.216907],[-0.293112,49.216629],[-0.293304,49.216465],[-0.293741,49.215693],[-0.293835,49.215419],[-0.294087,49.214824],[-0.294528,49.214193],[-0.295165,49.213373],[-0.295297,49.21308],[-0.295374,49.212748],[-0.295584,49.212292],[-0.295693,49.211984],[-0.295784,49.211877],[-0.293231,49.210802],[-0.293135,49.210767],[-0.292018,49.210255],[-0.289557,49.20907],[-0.287654,49.208179],[-0.285085,49.206628],[-0.284991,49.206562],[-0.28524,49.206288],[-0.28316,49.20587],[-0.283231,49.20579],[-0.281692,49.205461],[-0.281741,49.205335],[-0.280065,49.205042],[-0.280151,49.204785],[-0.275875,49.203827],[-0.275926,49.203723],[-0.275203,49.203559],[-0.274248,49.20329],[-0.273542,49.203122],[-0.27345,49.203278],[-0.271513,49.202849],[-0.268901,49.202172],[-0.269071,49.2019],[-0.268126,49.201694],[-0.265946,49.20113],[-0.26529,49.200994],[-0.264827,49.200944],[-0.263946,49.200882],[-0.262689,49.200764],[-0.262834,49.199931],[-0.262981,49.199211],[-0.261608,49.198868],[-0.262195,49.197484],[-0.26162,49.197365],[-0.262097,49.1963],[-0.261715,49.196168],[-0.261111,49.195934],[-0.259604,49.195219],[-0.258755,49.194869],[-0.25635,49.194221],[-0.253046,49.193479],[-0.251862,49.193239],[-0.251184,49.193113],[-0.251247,49.192945],[-0.250279,49.192819],[-0.249042,49.192671],[-0.247907,49.192525],[-0.247901,49.19243],[-0.246972,49.192212],[-0.246384,49.192095],[-0.246617,49.19176],[-0.246915,49.191198],[-0.247188,49.190497],[-0.247255,49.190227],[-0.247283,49.189854],[-0.247368,49.189351],[-0.246847,49.18935],[-0.246804,49.188337],[-0.246713,49.187058],[-0.244182,49.187136],[-0.243977,49.187163],[-0.24394,49.187269],[-0.241347,49.187345],[-0.241415,49.187076],[-0.237271,49.187342],[-0.236213,49.187781],[-0.234512,49.188267],[-0.234089,49.188349],[-0.233403,49.188393],[-0.230912,49.188143],[-0.228922,49.187936],[-0.228991,49.187689],[-0.227332,49.187394],[-0.224759,49.187149],[-0.224693,49.187044],[-0.224179,49.187095],[-0.224153,49.187204],[-0.223367,49.187171],[-0.221483,49.187166],[-0.221727,49.187303],[-0.221881,49.187485],[-0.221212,49.187486],[-0.220974,49.18751],[-0.219691,49.187761],[-0.21987,49.18791],[-0.219966,49.188048],[-0.220129,49.188144],[-0.220213,49.188307],[-0.220435,49.188537],[-0.218299,49.189617],[-0.218185,49.189663],[-0.21518,49.190676],[-0.215345,49.190816],[-0.214018,49.191275],[-0.212809,49.191672],[-0.212698,49.191551],[-0.209831,49.192952],[-0.210037,49.193088],[-0.210648,49.193373],[-0.21094,49.193527],[-0.211339,49.193638],[-0.211767,49.193732],[-0.21151,49.193807],[-0.211084,49.194023],[-0.210584,49.194332],[-0.210218,49.194581],[-0.209906,49.194848],[-0.209582,49.195045],[-0.20924,49.195176],[-0.208524,49.195525],[-0.20793,49.195854],[-0.205759,49.196877],[-0.2047,49.197682],[-0.203953,49.198275],[-0.203686,49.198472],[-0.204176,49.198973],[-0.20451,49.199166],[-0.20525,49.199452],[-0.206287,49.199899],[-0.207604,49.200429],[-0.208172,49.201259],[-0.207786,49.201554],[-0.207887,49.202072],[-0.207584,49.202254],[-0.207979,49.202821],[-0.208835,49.202831],[-0.208893,49.202991],[-0.208706,49.203008],[-0.208812,49.203568],[-0.208981,49.20396],[-0.209505,49.205248],[-0.209196,49.205389],[-0.208327,49.205594],[-0.208153,49.205649],[-0.207191,49.206035],[-0.205071,49.207765],[-0.200506,49.209318],[-0.200018,49.209486],[-0.199544,49.209603],[-0.199014,49.20968],[-0.198642,49.209687],[-0.19825,49.209662],[-0.196982,49.209653],[-0.196767,49.209662],[-0.19635,49.209735],[-0.195737,49.209748],[-0.195328,49.209732],[-0.195101,49.209694],[-0.194035,49.209467],[-0.193422,49.209396],[-0.19312,49.209392],[-0.192248,49.209541],[-0.192017,49.209755],[-0.191134,49.20962],[-0.190349,49.209879],[-0.190255,49.209556],[-0.189515,49.209527],[-0.189062,49.209559],[-0.188085,49.209752],[-0.18738,49.209926],[-0.186978,49.209909],[-0.186683,49.210015],[-0.185923,49.210205],[-0.185152,49.210316],[-0.185127,49.210068],[-0.185136,49.209783],[-0.185078,49.20952],[-0.184963,49.209479],[-0.184209,49.209689],[-0.184001,49.20944],[-0.183769,49.20929],[-0.183405,49.208817],[-0.183378,49.208615],[-0.183438,49.20813],[-0.183146,49.20817],[-0.18303,49.208228],[-0.182217,49.208384],[-0.181961,49.208307],[-0.178713,49.208893],[-0.174964,49.209288],[-0.174935,49.209428],[-0.172166,49.209603],[-0.17238,49.209823],[-0.172478,49.210029],[-0.172535,49.210335],[-0.172393,49.210593],[-0.17244,49.210712],[-0.172794,49.210968],[-0.173356,49.211293],[-0.173488,49.211462],[-0.170964,49.211792],[-0.17032,49.21188],[-0.169888,49.211958],[-0.169567,49.21198],[-0.168741,49.212107],[-0.168083,49.212186],[-0.167377,49.212285],[-0.167122,49.212336],[-0.167101,49.212511],[-0.167162,49.212582],[-0.167465,49.212716],[-0.167556,49.212942],[-0.167393,49.213177],[-0.167207,49.213254],[-0.167028,49.213401],[-0.166725,49.213525],[-0.166641,49.213646],[-0.16625,49.21368],[-0.166028,49.213603],[-0.165677,49.213538],[-0.165126,49.213314],[-0.164669,49.213198],[-0.164276,49.213142],[-0.164215,49.213163],[-0.163562,49.213567],[-0.161976,49.214609],[-0.161952,49.214819],[-0.162085,49.215083],[-0.162285,49.215392],[-0.162201,49.215511],[-0.161647,49.215696],[-0.16145,49.215797],[-0.16123,49.215863],[-0.160019,49.216081],[-0.159818,49.216078],[-0.159708,49.215713],[-0.159295,49.214831],[-0.159281,49.214773],[-0.159437,49.214342],[-0.159464,49.214079],[-0.159663,49.213882],[-0.159647,49.213642],[-0.159367,49.213459],[-0.160077,49.212883],[-0.160284,49.212649],[-0.16058,49.21205],[-0.161686,49.210461],[-0.161909,49.210165],[-0.162788,49.209236],[-0.163417,49.208613],[-0.16365,49.208266],[-0.164088,49.207528],[-0.164266,49.207249],[-0.164744,49.206605],[-0.165439,49.205622],[-0.165808,49.205001],[-0.165858,49.204767],[-0.165889,49.20397],[-0.165923,49.203839],[-0.166024,49.203729],[-0.166463,49.203361],[-0.167078,49.202932],[-0.167487,49.202628],[-0.167652,49.202462],[-0.167782,49.202214],[-0.167804,49.201859],[-0.167753,49.201581],[-0.16775,49.201336],[-0.167978,49.20096],[-0.168403,49.200537],[-0.168868,49.200218],[-0.169969,49.199567],[-0.170131,49.199455],[-0.170393,49.19918],[-0.170542,49.198928],[-0.170586,49.198766],[-0.170612,49.198458],[-0.170437,49.198128],[-0.170135,49.197824],[-0.169694,49.197494],[-0.169527,49.197397],[-0.168764,49.197049],[-0.168385,49.196846],[-0.16804,49.196593],[-0.167705,49.196279],[-0.167422,49.195974],[-0.167114,49.195742],[-0.166954,49.195675],[-0.166553,49.195635],[-0.166264,49.195527],[-0.166202,49.19534],[-0.166285,49.195209],[-0.166933,49.194691],[-0.166958,49.19447],[-0.166751,49.1944],[-0.166445,49.194342],[-0.165692,49.194248],[-0.165097,49.194201],[-0.164493,49.194058],[-0.164163,49.193925],[-0.163754,49.193652],[-0.163433,49.193502],[-0.163125,49.193488],[-0.162601,49.193615],[-0.162377,49.193582],[-0.161537,49.193144],[-0.161452,49.192983],[-0.16163,49.192642],[-0.162063,49.192147],[-0.162382,49.191939],[-0.162922,49.191675],[-0.163098,49.191565],[-0.1633,49.191344],[-0.163667,49.190838],[-0.163836,49.190531],[-0.164066,49.189927],[-0.164173,49.189544],[-0.164195,49.189343],[-0.164161,49.189056],[-0.164015,49.188764],[-0.163877,49.188568],[-0.163607,49.188282],[-0.163548,49.188152],[-0.163559,49.187991],[-0.163663,49.187712],[-0.163951,49.187216],[-0.164212,49.186827],[-0.164558,49.186269],[-0.164701,49.185958],[-0.164719,49.185759],[-0.164701,49.185464],[-0.164539,49.185004],[-0.164298,49.184442],[-0.164103,49.184122],[-0.163755,49.183679],[-0.163646,49.183376],[-0.163579,49.182649],[-0.163436,49.182239],[-0.1633,49.181981],[-0.163171,49.181845],[-0.162795,49.181598],[-0.162079,49.18125],[-0.161724,49.181148],[-0.161095,49.181008],[-0.160712,49.180939],[-0.159629,49.180673],[-0.159358,49.180687],[-0.159161,49.180764],[-0.158459,49.181126],[-0.158043,49.181279],[-0.15702,49.181543],[-0.156474,49.181645],[-0.155821,49.18169],[-0.154656,49.181713],[-0.153831,49.181768],[-0.153555,49.181762],[-0.153057,49.181703],[-0.15244,49.181589],[-0.151823,49.181538],[-0.151094,49.18153],[-0.148754,49.181544],[-0.148389,49.181569],[-0.147547,49.181688],[-0.147145,49.181647],[-0.146279,49.181508],[-0.145024,49.181228],[-0.144653,49.181177],[-0.144075,49.181228],[-0.143585,49.181319],[-0.142593,49.181564],[-0.141909,49.181808],[-0.141378,49.181966]]]}}]}