{"type":"FeatureCollection","features":[{"type":"Feature","properties":{"marge_km":10},"geometry":{"type":"Polygon","coordinates":[[[-0.211799,49.097535],[-0.190853,49.09313],[-0.179658,49.091805],[-0.171847,49.088107],[-0.15949,49.083452],[-0.146297,49.07963],[-0.132153,49.073361],[-0.119888,49.069232],[-0.107055,49.065933],[-0.093784,49.063497],[-0.05277,49.059906],[-0.03915,49.059946],[-0.016819,49.062065],[0.001672,49.062139],[0.012801,49.062986],[0.038922,49.066927],[0.059199,49.072099],[0.076617,49.077993],[0.098215,49.087856],[0.118207,49.100708],[0.126076,49.107438],[0.135799,49.118347],[0.15391,49.131356],[0.16167,49.138967],[0.168212,49.147057],[0.173468,49.15554],[0.17805,49.165872],[0.181233,49.177431],[0.191136,49.190223],[0.198651,49.204561],[0.201163,49.211845],[0.203353,49.223187],[0.203519,49.232839],[0.199579,49.25084],[0.190972,49.266912],[0.184962,49.274475],[0.169795,49.288317],[0.157451,49.296344],[0.155047,49.309252],[0.151683,49.317822],[0.147046,49.326134],[0.134139,49.341664],[0.125995,49.348732],[0.111429,49.358385],[0.104017,49.367771],[0.087675,49.382079],[0.07795,49.388367],[0.055875,49.3989],[0.031039,49.406374],[0.004424,49.410492],[-0.022914,49.411092],[-0.036516,49.410059],[-0.062912,49.40538],[-0.095426,49.39723],[-0.10811,49.392904],[-0.127473,49.388506],[-0.145829,49.382658],[-0.17073,49.377457],[-0.183636,49.376333],[-0.206037,49.377013],[-0.230576,49.376404],[-0.250881,49.374823],[-0.266024,49.372664],[-0.280697,49.369404],[-0.291424,49.366227],[-0.30732,49.360159],[-0.318879,49.354881],[-0.329549,49.348856],[-0.339216,49.342149],[-0.347778,49.33483],[-0.355148,49.326976],[-0.36178,49.317698],[-0.377157,49.306022],[-0.386198,49.296752],[-0.396943,49.282694],[-0.403856,49.269673],[-0.415851,49.256994],[-0.421055,49.249374],[-0.426977,49.238456],[-0.431241,49.226338],[-0.432934,49.20899],[-0.431854,49.200316],[-0.425895,49.183377],[-0.421073,49.175269],[-0.407971,49.160156],[-0.390686,49.146977],[-0.372299,49.136829],[-0.361552,49.131595],[-0.346745,49.12568],[-0.328553,49.114938],[-0.317385,49.110025],[-0.305538,49.105854],[-0.280271,49.099888],[-0.253721,49.097268],[-0.211799,49.097535]]]}}]}